CCSDS_OMM_VERS = 2.0
CREATION_DATE  = 
ORIGINATOR     = 

OBJECT_NAME    = SOYUZ-MS 28
OBJECT_ID      = 2025-275A
CENTER_NAME    = EARTH
REF_FRAME      = TEME
TIME_SYSTEM    = UTC
MEAN_ELEMENT_THEORY = SGP/SGP4

EPOCH          = 2025-12-14T05:13:44.174496
MEAN_MOTION    = 15.49586484
ECCENTRICITY   = .00032642
INCLINATION    = 51.6305
RA_OF_ASC_NODE = 135.1599
ARG_OF_PERICENTER = 246.9077
MEAN_ANOMALY   = 113.1568

EPHEMERIS_TYPE = 0
CLASSIFICATION_TYPE = U
NORAD_CAT_ID   = 66664
ELEMENT_SET_NO = 999
REV_AT_EPOCH   = 128
BSTAR          = .22198491E-3
MEAN_MOTION_DOT = .12052E-3
MEAN_MOTION_DDOT = 0

CCSDS_OMM_VERS = 2.0
CREATION_DATE  = 
ORIGINATOR     = 

OBJECT_NAME    = 1998-067XS
OBJECT_ID      = 1998-067XS
CENTER_NAME    = EARTH
REF_FRAME      = TEME
TIME_SYSTEM    = UTC
MEAN_ELEMENT_THEORY = SGP/SGP4

EPOCH          = 2025-12-14T03:31:53.110272
MEAN_MOTION    = 15.50662380
ECCENTRICITY   = .00034792
INCLINATION    = 51.6304
RA_OF_ASC_NODE = 135.4381
ARG_OF_PERICENTER = 209.6903
MEAN_ANOMALY   = 150.3889

EPHEMERIS_TYPE = 0
CLASSIFICATION_TYPE = U
NORAD_CAT_ID   = 66906
ELEMENT_SET_NO = 999
REV_AT_EPOCH   = 183
BSTAR          = .50586866E-3
MEAN_MOTION_DOT = .2921E-3
MEAN_MOTION_DDOT = 0

CCSDS_OMM_VERS = 2.0
CREATION_DATE  = 
ORIGINATOR     = 

OBJECT_NAME    = 1998-067XT
OBJECT_ID      = 1998-067XT
CENTER_NAME    = EARTH
REF_FRAME      = TEME
TIME_SYSTEM    = UTC
MEAN_ELEMENT_THEORY = SGP/SGP4

EPOCH          = 2025-12-14T03:26:43.609056
MEAN_MOTION    = 15.51665530
ECCENTRICITY   = .0004243
INCLINATION    = 51.6301
RA_OF_ASC_NODE = 135.4146
ARG_OF_PERICENTER = 234.9835
MEAN_ANOMALY   = 125.0757

EPHEMERIS_TYPE = 0
CLASSIFICATION_TYPE = U
NORAD_CAT_ID   = 66907
ELEMENT_SET_NO = 999
REV_AT_EPOCH   = 183
BSTAR          = .11319513E-2
MEAN_MOTION_DOT = .68696E-3
MEAN_MOTION_DDOT = 0

CCSDS_OMM_VERS = 2.0
CREATION_DATE  = 
ORIGINATOR     = 

OBJECT_NAME    = 1998-067XU
OBJECT_ID      = 1998-067XU
CENTER_NAME    = EARTH
REF_FRAME      = TEME
TIME_SYSTEM    = UTC
MEAN_ELEMENT_THEORY = SGP/SGP4

EPOCH          = 2025-12-14T03:26:08.586816
MEAN_MOTION    = 15.51757064
ECCENTRICITY   = .00043369
INCLINATION    = 51.6297
RA_OF_ASC_NODE = 135.4117
ARG_OF_PERICENTER = 234.6858
MEAN_ANOMALY   = 125.3727

EPHEMERIS_TYPE = 0
CLASSIFICATION_TYPE = U
NORAD_CAT_ID   = 66908
ELEMENT_SET_NO = 999
REV_AT_EPOCH   = 183
BSTAR          = .12622899E-2
MEAN_MOTION_DOT = .76995E-3
MEAN_MOTION_DDOT = 0

CCSDS_OMM_VERS = 2.0
CREATION_DATE  = 
ORIGINATOR     = 

OBJECT_NAME    = SILVERSAT
OBJECT_ID      = 1998-067XV
CENTER_NAME    = EARTH
REF_FRAME      = TEME
TIME_SYSTEM    = UTC
MEAN_ELEMENT_THEORY = SGP/SGP4

EPOCH          = 2025-12-13T19:41:48.869664
MEAN_MOTION    = 15.51822369
ECCENTRICITY   = .00043322
INCLINATION    = 51.6299
RA_OF_ASC_NODE = 137.0079
ARG_OF_PERICENTER = 234.1355
MEAN_ANOMALY   = 125.9233

EPHEMERIS_TYPE = 0
CLASSIFICATION_TYPE = U
NORAD_CAT_ID   = 66909
ELEMENT_SET_NO = 999
REV_AT_EPOCH   = 178
BSTAR          = .12407437E-2
MEAN_MOTION_DOT = .7584E-3
MEAN_MOTION_DDOT = 0

CCSDS_OMM_VERS = 2.0
CREATION_DATE  = 
ORIGINATOR     = 

OBJECT_NAME    = 1998-067XW
OBJECT_ID      = 1998-067XW
CENTER_NAME    = EARTH
REF_FRAME      = TEME
TIME_SYSTEM    = UTC
MEAN_ELEMENT_THEORY = SGP/SGP4

EPOCH          = 2025-12-14T03:23:10.619232
MEAN_MOTION    = 15.51967036
ECCENTRICITY   = .00049581
INCLINATION    = 51.6295
RA_OF_ASC_NODE = 135.3982
ARG_OF_PERICENTER = 216.2881
MEAN_ANOMALY   = 143.7773

EPHEMERIS_TYPE = 0
CLASSIFICATION_TYPE = U
NORAD_CAT_ID   = 66910
ELEMENT_SET_NO = 999
REV_AT_EPOCH   = 183
BSTAR          = .10799417E-2
MEAN_MOTION_DOT = .66221E-3
MEAN_MOTION_DDOT = 0

CCSDS_OMM_VERS = 2.0
CREATION_DATE  = 
ORIGINATOR     = 

OBJECT_NAME    = 1998-067XX
OBJECT_ID      = 1998-067XX
CENTER_NAME    = EARTH
REF_FRAME      = TEME
TIME_SYSTEM    = UTC
MEAN_ELEMENT_THEORY = SGP/SGP4

EPOCH          = 2025-12-14T03:21:47.573280
MEAN_MOTION    = 15.52259497
ECCENTRICITY   = .0004664
INCLINATION    = 51.6298
RA_OF_ASC_NODE = 135.3916
ARG_OF_PERICENTER = 217.9466
MEAN_ANOMALY   = 142.1196

EPHEMERIS_TYPE = 0
CLASSIFICATION_TYPE = U
NORAD_CAT_ID   = 66911
ELEMENT_SET_NO = 999
REV_AT_EPOCH   = 182
BSTAR          = .12814197E-2
MEAN_MOTION_DOT = .79628E-3
MEAN_MOTION_DDOT = 0

CCSDS_OMM_VERS = 2.0
CREATION_DATE  = 
ORIGINATOR     = 

OBJECT_NAME    = 1998-067XY
OBJECT_ID      = 1998-067XY
CENTER_NAME    = EARTH
REF_FRAME      = TEME
TIME_SYSTEM    = UTC
MEAN_ELEMENT_THEORY = SGP/SGP4

EPOCH          = 2025-12-14T03:28:32.818656
MEAN_MOTION    = 15.51307028
ECCENTRICITY   = .00043936
INCLINATION    = 51.6302
RA_OF_ASC_NODE = 135.4229
ARG_OF_PERICENTER = 231.7260
MEAN_ANOMALY   = 128.3335

EPHEMERIS_TYPE = 0
CLASSIFICATION_TYPE = U
NORAD_CAT_ID   = 66912
ELEMENT_SET_NO = 999
REV_AT_EPOCH   = 182
BSTAR          = .91761575E-3
MEAN_MOTION_DOT = .54792E-3
MEAN_MOTION_DDOT = 0

